NORAD_CAT_ID,OBJECT_NAME,OBJECT_TYPE,EPOCH,MEAN_MOTION,ECCENTRICITY,INCLINATION,RA_OF_ASC_NODE,ARG_OF_PERICENTER,MEAN_ANOMALY,BSTAR,MEAN_MOTION_DOT,MEAN_MOTION_DDOT,TLE_LINE0,TLE_LINE1,TLE_LINE2,SEMIMAJOR_AXIS,PERIOD,APOGEE,PERIGEE,DECAYED
49734.0,STARLINK-3238,PAYLOAD,2024-05-03 17:56:40,15.08833861,0.0002251,53.215,299.0768,89.616,270.509,-5.7617e-05,-1.205e-05,0.0,0 STARLINK-3238,1 49734U 21115L   24124.74768958 -.00001205  00000-0 -57617-4 0  9994,2 49734  53.2150 299.0768 0002251  89.6160 270.5090 15.08833861134752,6917.899,95.438,541.321,538.207,0.0
49734.0,STARLINK-3238,PAYLOAD,2024-05-04 17:47:27,15.08845779,0.0001342,53.2163,294.6179,93.1993,266.9152,0.00058003,8.957e-05,0.0,0 STARLINK-3238,1 49734U 21115L   24125.74128733  .00008957  00000-0  58003-3 0  9994,2 49734  53.2163 294.6179 0001342  93.1993 266.9152 15.08845779134903,6917.863,95.437,540.656,538.799,0.0
49734.0,STARLINK-3238,PAYLOAD,2024-05-05 14:27:27,15.08852068,0.0001312,53.2169,290.7516,93.3506,266.7636,0.00044096,6.739e-05,0.0,0 STARLINK-3238,1 49734U 21115L   24126.60240405  .00006739  00000-0  44096-3 0  9994,2 49734  53.2169 290.7516 0001312  93.3506 266.7636 15.08852068133925,6917.844,95.437,540.616,538.801,0.0
49734.0,STARLINK-3238,PAYLOAD,2024-05-05 17:38:13,15.08851041,0.0001288,53.2172,290.1568,92.5824,267.5316,0.00036836,5.581e-05,0.0,0 STARLINK-3238,1 49734U 21115L   24126.73488340  .00005581  00000-0  36836-3 0  9997,2 49734  53.2172 290.1568 0001288  92.5824 267.5316 15.08851041135056,6917.847,95.437,540.603,538.821,0.0
49734.0,STARLINK-3238,PAYLOAD,2024-05-06 11:07:28,15.08849907,0.0001319,53.217,286.8856,91.8906,268.2237,0.0002269,3.326e-05,0.0,0 STARLINK-3238,1 49734U 21115L   24127.46352121  .00003326  00000-0  22690-3 0  9993,2 49734  53.2170 286.8856 0001319  91.8906 268.2237 15.08849907135164,6917.85,95.437,540.628,538.803,0.0
49734.0,STARLINK-3238,PAYLOAD,2024-05-06 14:18:14,15.08846532,0.0001307,53.217,286.291,92.6844,267.4297,0.00013886,1.923e-05,0.0,0 STARLINK-3238,1 49734U 21115L   24127.59600219  .00001923  00000-0  13886-3 0  9999,2 49734  53.2170 286.2910 0001307  92.6844 267.4297 15.08846532134073,6917.86,95.437,540.63,538.821,0.0
49734.0,STARLINK-3238,PAYLOAD,2024-05-06 17:29:00,15.08847086,0.0001252,53.2168,285.6982,86.9218,273.1917,0.00014021,1.945e-05,0.0,0 STARLINK-3238,1 49734U 21115L   24127.72848198  .00001945  00000-0  14021-3 0  9990,2 49734  53.2168 285.6982 0001252  86.9218 273.1917 15.08847086134092,6917.859,95.437,540.59,538.858,0.0
49734.0,STARLINK-3238,PAYLOAD,2024-05-07 10:58:15,15.08837911,0.000132,53.2172,282.4283,86.2245,273.8899,3.3146e-05,2.4e-06,0.0,0 STARLINK-3238,1 49734U 21115L   24128.45712620  .00000240  00000-0  33146-4 0  9998,2 49734  53.2172 282.4283 0001320  86.2245 273.8899 15.08837911135313,6917.887,95.438,540.665,538.839,0.0
49734.0,STARLINK-3238,PAYLOAD,2024-05-07 14:09:02,15.0882305,0.0001192,53.2167,281.8326,90.4667,269.6462,-0.000191,-3.325e-05,0.0,0 STARLINK-3238,1 49734U 21115L   24128.58961290 -.00003325  00000-0 -19100-3 0  9993,2 49734  53.2167 281.8326 0001192  90.4667 269.6462 15.08823050134227,6917.932,95.439,540.622,538.973,0.0
49734.0,STARLINK-3238,PAYLOAD,2024-05-07 17:19:48,15.08824802,0.000118,53.2167,281.237,94.2997,265.813,-0.00015809,-2.802e-05,0.0,0 STARLINK-3238,1 49734U 21115L   24128.72209272 -.00002802  00000-0 -15809-3 0  9995,2 49734  53.2167 281.2370 0001180  94.2997 265.8130 15.08824802135356,6917.927,95.439,540.608,538.976,0.0
49734.0,STARLINK-3238,PAYLOAD,2024-05-08 02:52:07,15.08834531,0.0001168,53.2167,279.4519,87.585,272.5276,8.9712e-06,-1.45e-06,0.0,0 STARLINK-3238,1 49734U 21115L   24129.11953045 -.00000145  00000-0  89712-5 0  9996,2 49734  53.2167 279.4519 0001168  87.5850 272.5276 15.08834531135412,6917.897,95.438,540.57,538.954,0.0
49734.0,STARLINK-3238,PAYLOAD,2024-05-08 13:59:49,15.08839626,0.0001182,53.2171,277.3709,92.7856,267.3271,0.00012463,1.696e-05,0.0,0 STARLINK-3238,1 49734U 21115L   24129.58320988  .00001696  00000-0  12463-3 0  9999,2 49734  53.2171 277.3709 0001182  92.7856 267.3271 15.08839626134376,6917.882,95.438,540.564,538.929,0.0
49734.0,STARLINK-3238,PAYLOAD,2024-05-08 17:10:35,15.08845728,0.000115,53.2176,276.7756,91.5842,268.5282,0.00033163,4.995e-05,0.0,0 STARLINK-3238,1 49734U 21115L   24129.71569147  .00004995  00000-0  33163-3 0  9991,2 49734  53.2176 276.7756 0001150  91.5842 268.5282 15.08845728134390,6917.863,95.437,540.523,538.932,0.0
49734.0,STARLINK-3238,PAYLOAD,2024-05-09 02:42:53,15.08861782,0.0001009,53.2156,274.9875,53.5974,306.5111,0.00057367,8.859e-05,0.0,0 STARLINK-3238,1 49734U 21115L   24130.11312001  .00008859  00000-0  57367-3 0  9997,2 49734  53.2156 274.9875 0001009  53.5974 306.5111 15.08861782135569,6917.814,95.436,540.377,538.981,0.0
49734.0,STARLINK-3238,PAYLOAD,2024-05-09 09:04:27,15.0883724,0.0001324,53.2176,273.8025,81.4733,278.6409,0.00025194,3.724e-05,0.0,0 STARLINK-3238,1 49734U 21115L   24130.37809245  .00003724  00000-0  25194-3 0  9995,2 49734  53.2176 273.8025 0001324  81.4733 278.6409 15.08837240135605,6917.889,95.438,540.67,538.838,0.0
49734.0,STARLINK-3238,PAYLOAD,2024-05-09 13:50:36,15.08841032,0.0001244,53.2172,272.9103,79.2035,280.9097,0.00020911,3.042e-05,0.0,0 STARLINK-3238,1 49734U 21115L   24130.57681083  .00003042  00000-0  20911-3 0  9990,2 49734  53.2172 272.9103 0001244  79.2035 280.9097 15.08841032134522,6917.877,95.437,540.603,538.882,0.0
49734.0,STARLINK-3238,PAYLOAD,2024-05-09 15:25:59,15.08844516,0.0001277,53.2171,272.6129,76.7659,283.3476,0.00021083,3.069e-05,0.0,0 STARLINK-3238,1 49734U 21115L   24130.64304904  .00003069  00000-0  21083-3 0  9992,2 49734  53.2171 272.6129 0001277  76.7659 283.3476 15.08844516134535,6917.867,95.437,540.615,538.848,0.0
49734.0,STARLINK-3238,PAYLOAD,2024-05-10 02:33:41,15.08858759,0.0001417,53.2177,270.5317,70.723,289.3915,0.0011845,0.00018623,0.0,0 STARLINK-3238,1 49734U 21115L   24131.10672671  .00018623  00000-0  11845-2 0  9999,2 49734  53.2177 270.5317 0001417  70.7230 289.3915 15.08858759135711,6917.823,95.436,540.668,538.708,0.0
49734.0,STARLINK-3238,PAYLOAD,2024-05-10 08:55:13,15.08844139,0.0001561,53.217,269.3418,78.4248,281.6919,0.00059654,9.22e-05,0.0,0 STARLINK-3238,1 49734U 21115L   24131.37168919  .00009220  00000-0  59654-3 0  9997,2 49734  53.2170 269.3418 0001561  78.4248 281.6919 15.08844139135756,6917.868,95.437,540.813,538.653,0.0
49734.0,STARLINK-3238,PAYLOAD,2024-05-10 15:16:46,15.08840304,0.0001043,53.2162,268.1521,79.8799,280.231,0.0024247,0.00038512,0.0,0 STARLINK-3238,1 49734U 21115L   24131.63665264  .00038512  00000-0  24247-2 0  9996,2 49734  53.2162 268.1521 0001043  79.8799 280.2310 15.08840304134681,6917.879,95.438,540.466,539.023,0.0
49734.0,STARLINK-3238,PAYLOAD,2024-05-11 13:32:07,15.08978802,0.0001148,53.2162,263.9892,69.8686,290.243,0.0053429,0.00086111,0.0,0 STARLINK-3238,1 49734U 21115L   24132.56397570  .00086111  00000-0  53429-2 0  9993,2 49734  53.2162 263.9892 0001148  69.8686 290.2430 15.08978802135933,6917.456,95.429,540.115,538.527,0.0
49734.0,STARLINK-3238,PAYLOAD,2024-05-11 15:07:29,15.09004843,0.0001103,53.2156,263.6918,69.111,291.0,0.0059867,0.00096737,0.0,0 STARLINK-3238,1 49734U 21115L   24132.63020643  .00096737  00000-0  59867-2 0  9992,2 49734  53.2156 263.6918 0001103  69.1110 291.0000 15.09004843135947,6917.377,95.427,540.005,538.479,0.0
49734.0,STARLINK-3238,PAYLOAD,2024-05-12 02:15:12,15.08642317,8.01e-05,53.2195,261.6153,28.1225,331.981,-0.00035468,-5.897e-05,0.0,0 STARLINK-3238,1 49734U 21115L   24133.09389746 -.00005897  00000-0 -35468-3 0  9996,2 49734  53.2195 261.6153 0000801  28.1225 331.9810 15.08642317136010,6918.485,95.45,540.904,539.796,0.0
49734.0,STARLINK-3238,PAYLOAD,2024-05-12 13:23:02,15.08565561,0.0001192,53.2171,259.5313,99.4161,260.6966,0.0016805,0.00026358,0.0,0 STARLINK-3238,1 49734U 21115L   24133.55766583  .00026358  00000-0  16805-2 0  9991,2 49734  53.2171 259.5313 0001192  99.4161 260.6966 15.08565561136084,6918.719,95.455,541.409,539.76,0.0
49734.0,STARLINK-3238,PAYLOAD,2024-05-12 14:58:26,15.08568997,0.0001132,53.2175,259.2336,105.6065,254.5052,0.0017061,0.00026768,0.0,0 STARLINK-3238,1 49734U 21115L   24133.62391731  .00026768  00000-0  17061-2 0  9998,2 49734  53.2175 259.2336 0001132 105.6065 254.5052 15.08568997134988,6918.709,95.455,541.357,539.791,0.0
49734.0,STARLINK-3238,PAYLOAD,2024-05-13 11:38:30,15.08893901,0.0001643,53.2168,255.3663,106.4994,253.6179,0.0020639,0.00032761,0.0,0 STARLINK-3238,1 49734U 21115L   24134.48507005  .00032761  00000-0  20639-2 0  9991,2 49734  53.2168 255.3663 0001643 106.4994 253.6179 15.08893901136222,6917.716,95.434,540.717,538.444,0.0
49734.0,STARLINK-3238,PAYLOAD,2024-05-13 14:49:15,15.08900501,0.0001442,53.2157,254.7725,95.0459,265.0698,0.0028628,0.00045645,0.0,0 STARLINK-3238,1 49734U 21115L   24134.61754551  .00045645  00000-0  28628-2 0  9997,2 49734  53.2157 254.7725 0001442  95.0459 265.0698 15.08900501135135,6917.695,95.434,540.558,538.563,0.0
49734.0,STARLINK-3238,PAYLOAD,2024-05-13 18:00:01,15.08909672,0.000128,53.2165,254.1774,93.3321,266.7817,0.0022324,0.00035488,0.0,0 STARLINK-3238,1 49734U 21115L   24134.75001969  .00035488  00000-0  22324-2 0  9991,2 49734  53.2165 254.1774 0001280  93.3321 266.7817 15.08909672135152,6917.667,95.433,540.418,538.647,0.0
49734.0,STARLINK-3238,PAYLOAD,2024-05-14 14:39:58,15.08953315,0.000123,53.2164,250.3119,88.0338,272.0795,0.0018301,0.00029049,0.0,0 STARLINK-3238,1 49734U 21115L   24135.61108823  .00029049  00000-0  18301-2 0  9990,2 49734  53.2164 250.3119 0001230  88.0338 272.0795 15.08953315135288,6917.534,95.43,540.25,538.548,0.0
49734.0,STARLINK-3238,PAYLOAD,2024-05-15 00:12:13,15.09010085,0.0001986,53.217,248.5253,309.7008,50.3809,0.0041226,0.00066249,0.0,0 STARLINK-3238,1 49734U 21115L   24136.00848537  .00066249  00000-0  41226-2 0  9992,2 49734  53.2170 248.5253 0001986 309.7008  50.3809 15.09010085136450,6917.361,95.427,540.599,537.852,0.0
